{"type":"FeatureCollection","features":[{"type":"Feature","geometry":{"type":"Polygon","coordinates":[[[106.661356,10.741821,0],[106.664274,10.733747,0],[106.665583,10.733831,0],[106.665519,10.734738,0],[106.665411,10.735328,0],[106.664339,10.737331,0],[106.663866,10.739039,0],[106.663394,10.740978,0],[106.663094,10.741252,0],[106.662193,10.741358,0],[106.661356,10.741821,0]]]},"properties":{"name":"KP1","description":"Khu phố 1 - Phường Bình Đông","styleUrl":"#poly-000000-1200-77","fill-opacity":0.30196078431372547,"fill":"#000000","stroke-opacity":1,"stroke":"#000000","stroke-width":1.2}},{"type":"Feature","geometry":{"type":"Polygon","coordinates":[[[106.659307,10.742254,0],[106.659436,10.7416,0],[106.659855,10.741653,0],[106.660187,10.738933,0],[106.662097,10.739692,0],[106.661356,10.741821,0],[106.6614,10.741969,0],[106.661121,10.742475,0],[106.660552,10.742465,0],[106.659307,10.742254,0]]]},"properties":{"name":"KP2","description":"Khu phố 2 - Phường Bình Đông","styleUrl":"#poly-000000-1200-77","fill-opacity":0.30196078431372547,"fill":"#000000","stroke-opacity":1,"stroke":"#000000","stroke-width":1.2}},{"type":"Feature","geometry":{"type":"Polygon","coordinates":[[[106.660187,10.738933,0],[106.660491,10.736427,0],[106.663066,10.736912,0],[106.662097,10.739692,0],[106.660187,10.738933,0]]]},"properties":{"name":"KP3","description":"Khu phố 3 - Phường Bình Đông","styleUrl":"#poly-000000-1200-77","fill-opacity":0.30196078431372547,"fill":"#000000","stroke-opacity":1,"stroke":"#000000","stroke-width":1.2}},{"type":"Feature","geometry":{"type":"Polygon","coordinates":[[[106.660491,10.736427,0],[106.660609,10.734388,0],[106.659794,10.734325,0],[106.660051,10.733229,0],[106.662025,10.733587,0],[106.664064,10.734198,0],[106.663066,10.736912,0],[106.660491,10.736427,0]]]},"properties":{"name":"KP4","description":"Khu phố 4 - Phường Bình Đông","styleUrl":"#poly-000000-1200-77","fill-opacity":0.30196078431372547,"fill":"#000000","stroke-opacity":1,"stroke":"#000000","stroke-width":1.2}},{"type":"Feature","geometry":{"type":"Polygon","coordinates":[[[106.659307,10.742254,0],[106.65811,10.742031,0],[106.658217,10.741357,0],[106.657981,10.741336,0],[106.658217,10.738194,0],[106.660187,10.738933,0],[106.659855,10.741653,0],[106.659436,10.7416,0],[106.659307,10.742254,0]]]},"properties":{"name":"KP5","description":"Khu phố 5 - Phường Bình Đông","styleUrl":"#poly-000000-1200-77","fill-opacity":0.30196078431372547,"fill":"#000000","stroke-opacity":1,"stroke":"#000000","stroke-width":1.2}},{"type":"Feature","geometry":{"type":"Polygon","coordinates":[[[106.658217,10.738194,0],[106.658496,10.734217,0],[106.660609,10.734388,0],[106.660491,10.736427,0],[106.660187,10.738933,0],[106.658217,10.738194,0]]]},"properties":{"name":"KP6","description":"Khu phố 6 - Phường Bình Đông","styleUrl":"#poly-000000-1200-77","fill-opacity":0.30196078431372547,"fill":"#000000","stroke-opacity":1,"stroke":"#000000","stroke-width":1.2}},{"type":"Feature","geometry":{"type":"Polygon","coordinates":[[[106.65811,10.742031,0],[106.656252,10.741538,0],[106.656488,10.740632,0],[106.656359,10.737532,0],[106.658217,10.738194,0],[106.657981,10.741336,0],[106.658217,10.741357,0],[106.65811,10.742031,0]]]},"properties":{"name":"KP7","description":"Khu phố 7 - Phường Bình Đông","styleUrl":"#poly-000000-1200-77","fill-opacity":0.30196078431372547,"fill":"#000000","stroke-opacity":1,"stroke":"#000000","stroke-width":1.2}},{"type":"Feature","geometry":{"type":"Polygon","coordinates":[[[106.656359,10.737532,0],[106.656218,10.732711,0],[106.660051,10.733229,0],[106.659794,10.734325,0],[106.658496,10.734217,0],[106.658217,10.738194,0],[106.656359,10.737532,0]]]},"properties":{"name":"KP8","description":"Khu phố 8 - Phường Bình Đông","styleUrl":"#poly-000000-1200-77","fill-opacity":0.30196078431372547,"fill":"#000000","stroke-opacity":1,"stroke":"#000000","stroke-width":1.2}},{"type":"Feature","geometry":{"type":"Polygon","coordinates":[[[106.655966,10.741332,0],[106.65307,10.739846,0],[106.653477,10.739256,0],[106.653231,10.739055,0],[106.653531,10.738434,0],[106.653445,10.738012,0],[106.653552,10.737906,0],[106.654239,10.736747,0],[106.65616,10.737506,0],[106.656149,10.739066,0],[106.656063,10.73915,0],[106.656192,10.740679,0],[106.655966,10.741332,0]]]},"properties":{"name":"KP9","description":"Khu phố 9 - Phường Bình Đông","styleUrl":"#poly-000000-1200-77","fill-opacity":0.30196078431372547,"fill":"#000000","stroke-opacity":1,"stroke":"#000000","stroke-width":1.2}},{"type":"Feature","geometry":{"type":"Polygon","coordinates":[[[106.65616,10.737506,0],[106.650849,10.735493,0],[106.651546,10.732689,0],[106.653338,10.733279,0],[106.652984,10.734944,0],[106.653692,10.735092,0],[106.656095,10.735103,0],[106.65616,10.737506,0]]]},"properties":{"name":"KP10","description":"Khu phố 10 - Phường Bình Đông","styleUrl":"#poly-000000-1200-77","fill-opacity":0.30196078431372547,"fill":"#000000","stroke-opacity":1,"stroke":"#000000","stroke-width":1.2}},{"type":"Feature","geometry":{"type":"Polygon","coordinates":[[[106.656095,10.735103,0],[106.653827,10.7351,0],[106.652984,10.734944,0],[106.653338,10.733279,0],[106.654224,10.733804,0],[106.654095,10.731601,0],[106.654631,10.731769,0],[106.654728,10.731928,0],[106.655254,10.732075,0],[106.656026,10.732107,0],[106.656095,10.735103,0]]]},"properties":{"name":"KP11","description":"Khu phố 11 - Phường Bình Đông","styleUrl":"#poly-000000-1200-77","fill-opacity":0.30196078431372547,"fill":"#000000","stroke-opacity":1,"stroke":"#000000","stroke-width":1.2}},{"type":"Feature","geometry":{"type":"Polygon","coordinates":[[[106.650849,10.735493,0],[106.654239,10.736747,0],[106.653445,10.738012,0],[106.653531,10.738434,0],[106.653231,10.739055,0],[106.653477,10.739256,0],[106.65307,10.739846,0],[106.651212,10.738644,0],[106.650708,10.73836,0],[106.650375,10.738001,0],[106.649903,10.73778,0],[106.65015,10.737274,0],[106.649978,10.737126,0],[106.650493,10.736336,0],[106.650611,10.735461,0],[106.650849,10.735493,0]]]},"properties":{"name":"KP12","description":"Khu phố 12 - Phường Bình Đông","styleUrl":"#poly-000000-1200-77","fill-opacity":0.30196078431372547,"fill":"#000000","stroke-opacity":1,"stroke":"#000000","stroke-width":1.2}},{"type":"Feature","geometry":{"type":"Polygon","coordinates":[[[106.646911,10.735224,0],[106.64726,10.734612,0],[106.647308,10.733927,0],[106.647533,10.733938,0],[106.647614,10.732536,0],[106.64815,10.731313,0],[106.651557,10.732689,0],[106.650859,10.735493,0],[106.650622,10.735461,0],[106.650504,10.736336,0],[106.649989,10.737126,0],[106.650161,10.737274,0],[106.649947,10.737701,0],[106.647372,10.736025,0],[106.646847,10.735687,0],[106.647018,10.735435,0],[106.646836,10.73534,0],[106.646911,10.735224,0]]]},"properties":{"name":"KP13","description":"Khu phố 13 - Phường Bình Đông","styleUrl":"#poly-000000-1200-77","fill-opacity":0.30196078431372547,"fill":"#000000","stroke-opacity":1,"stroke":"#000000","stroke-width":1.2}},{"type":"Feature","geometry":{"type":"Polygon","coordinates":[[[106.654095,10.731601,0],[106.654224,10.733804,0],[106.653338,10.733279,0],[106.651546,10.732689,0],[106.64814,10.731313,0],[106.644322,10.729714,0],[106.64458,10.728597,0],[106.644966,10.728681,0],[106.645159,10.729187,0],[106.650373,10.728702,0],[106.650416,10.72904,0],[106.650223,10.729799,0],[106.649665,10.730642,0],[106.654095,10.731601,0]]]},"properties":{"name":"KP14","description":"Khu phố 14 - Phường Bình Đông","styleUrl":"#poly-000000-1200-77","fill-opacity":0.30196078431372547,"fill":"#000000","stroke-opacity":1,"stroke":"#000000","stroke-width":1.2}},{"type":"Feature","geometry":{"type":"Polygon","coordinates":[[[106.646836,10.735687,0],[106.64203,10.733105,0],[106.642373,10.732599,0],[106.64218,10.732431,0],[106.642566,10.731777,0],[106.642395,10.731123,0],[106.64409,10.731123,0],[106.644322,10.729714,0],[106.64814,10.731313,0],[106.647618,10.732471,0],[106.647523,10.733938,0],[106.647297,10.733927,0],[106.647249,10.734612,0],[106.646825,10.73534,0],[106.647008,10.735435,0],[106.646836,10.735687,0]]]},"properties":{"name":"KP15","description":"Khu phố 15 - Phường Bình Đông","styleUrl":"#poly-000000-1200-77","fill-opacity":0.30196078431372547,"fill":"#000000","stroke-opacity":1,"stroke":"#000000","stroke-width":1.2}},{"type":"Feature","geometry":{"type":"Polygon","coordinates":[[[106.642726,10.732752,0],[106.643005,10.732183,0],[106.643499,10.731993,0],[106.644915,10.732857,0],[106.644421,10.733722,0],[106.642726,10.732752,0]]]},"properties":{"name":"KP16","description":"Khu phố 16 - Phường Bình Đông","styleUrl":"#poly-1A237E-1200-77","fill-opacity":0.30196078431372547,"fill":"#1a237e","stroke-opacity":1,"stroke":"#1a237e","stroke-width":1.2}},{"type":"Feature","geometry":{"type":"Polygon","coordinates":[[[106.64458,10.728597,0],[106.64409,10.731123,0],[106.642395,10.731123,0],[106.642566,10.731777,0],[106.64218,10.732431,0],[106.642373,10.732599,0],[106.64203,10.733105,0],[106.641846,10.732956,0],[106.641567,10.73283,0],[106.641267,10.732598,0],[106.641053,10.732472,0],[106.640881,10.732261,0],[106.640709,10.732008,0],[106.640645,10.731734,0],[106.640709,10.731439,0],[106.640795,10.73108,0],[106.640709,10.730384,0],[106.640473,10.729752,0],[106.640344,10.729225,0],[106.640473,10.728888,0],[106.640859,10.728719,0],[106.641374,10.728803,0],[106.641954,10.728656,0],[106.642555,10.72777,0],[106.643327,10.727981,0],[106.643456,10.728382,0],[106.64458,10.728597,0]]]},"properties":{"name":"KP17","description":"Khu phố 17 - Phường Bình Đông","styleUrl":"#poly-000000-1200-77","fill-opacity":0.30196078431372547,"fill":"#000000","stroke-opacity":1,"stroke":"#000000","stroke-width":1.2}},{"type":"Feature","geometry":{"type":"Polygon","coordinates":[[[106.639988,10.731182,0],[106.639344,10.731014,0],[106.638915,10.730613,0],[106.638379,10.729706,0],[106.638078,10.729601,0],[106.637842,10.729264,0],[106.637885,10.729116,0],[106.637692,10.728926,0],[106.637563,10.728716,0],[106.637392,10.728399,0],[106.637134,10.728273,0],[106.636962,10.727914,0],[106.637005,10.727661,0],[106.636791,10.727155,0],[106.636598,10.726818,0],[106.637713,10.726397,0],[106.638271,10.726354,0],[106.63943,10.725954,0],[106.640267,10.728167,0],[106.639881,10.729264,0],[106.640138,10.730634,0],[106.639988,10.731182,0]]]},"properties":{"name":"KP18","description":"Khu phố 18 - Phường Bình Đông","styleUrl":"#poly-000000-1200-77","fill-opacity":0.30196078431372547,"fill":"#000000","stroke-opacity":1,"stroke":"#000000","stroke-width":1.2}},{"type":"Feature","geometry":{"type":"Polygon","coordinates":[[[106.636598,10.726818,0],[106.635117,10.723981,0],[106.635246,10.723812,0],[106.634559,10.722948,0],[106.634452,10.722568,0],[106.633693,10.720688,0],[106.636311,10.719507,0],[106.637048,10.72105,0],[106.637971,10.723939,0],[106.63943,10.725954,0],[106.636598,10.726818,0]]]},"properties":{"name":"KP19","description":"Khu phố 19 - Phường Bình Đông","styleUrl":"#poly-000000-1200-77","fill-opacity":0.30196078431372547,"fill":"#000000","stroke-opacity":1,"stroke":"#000000","stroke-width":1.2}},{"type":"Feature","geometry":{"type":"Polygon","coordinates":[[[106.627642,10.712613,0],[106.628736,10.710694,0],[106.631161,10.709387,0],[106.632556,10.71217,0],[106.633135,10.713793,0],[106.634401,10.71567,0],[106.636311,10.719507,0],[106.633693,10.720688,0],[106.632835,10.719043,0],[106.633007,10.71879,0],[106.632577,10.718284,0],[106.632556,10.718115,0],[106.631998,10.717103,0],[106.630517,10.715079,0],[106.6282,10.712887,0],[106.627642,10.712613,0]]]},"properties":{"name":"KP20","description":"Khu phố 20 - Phường Bình Đông","styleUrl":"#poly-000000-1200-77","fill-opacity":0.30196078431372547,"fill":"#000000","stroke-opacity":1,"stroke":"#000000","stroke-width":1.2}},{"type":"Feature","geometry":{"type":"Polygon","coordinates":[[[106.628844,10.705027,0],[106.625862,10.698902,0],[106.627246,10.699318,0],[106.63026,10.704331,0],[106.632385,10.707578,0],[106.633779,10.710487,0],[106.635367,10.71405,0],[106.636998,10.717361,0],[106.639165,10.721261,0],[106.640281,10.723601,0],[106.641097,10.725667,0],[106.64159,10.728134,0],[106.640496,10.728155,0],[106.640303,10.72748,0],[106.640045,10.726574,0],[106.63953,10.725478,0],[106.638801,10.724613,0],[106.638178,10.723686,0],[106.637706,10.722484,0],[106.637299,10.720734,0],[106.637062,10.719933,0],[106.63732,10.719595,0],[106.636891,10.719638,0],[106.636161,10.718478,0],[106.634445,10.715273,0],[106.633028,10.713334,0],[106.63084,10.708737,0],[106.628844,10.705027,0]]]},"properties":{"name":"KP21","description":"Khu phố 21 - Phường Bình Đông","styleUrl":"#poly-000000-1200-77","fill-opacity":0.30196078431372547,"fill":"#000000","stroke-opacity":1,"stroke":"#000000","stroke-width":1.2}},{"type":"Feature","geometry":{"type":"Polygon","coordinates":[[[106.627866,10.712113,0],[106.62424,10.710194,0],[106.623295,10.707453,0],[106.628844,10.705027,0],[106.631161,10.709387,0],[106.628736,10.710694,0],[106.627866,10.712113,0]]]},"properties":{"name":"KP22","description":"Khu phố 22 - Phường Bình Đông","styleUrl":"#poly-000000-1200-77","fill-opacity":0.30196078431372547,"fill":"#000000","stroke-opacity":1,"stroke":"#000000","stroke-width":1.2}},{"type":"Feature","geometry":{"type":"Polygon","coordinates":[[[106.627642,10.712613,0],[106.624939,10.711345,0],[106.624489,10.711113,0],[106.622987,10.710713,0],[106.621699,10.710565,0],[106.619596,10.709975,0],[106.619189,10.709659,0],[106.619146,10.7093,0],[106.623295,10.707453,0],[106.62424,10.710194,0],[106.627866,10.712113,0],[106.627642,10.712613,0]]]},"properties":{"name":"KP23","description":"Khu phố 23 - Phường Bình Đông","styleUrl":"#poly-000000-1200-77","fill-opacity":0.30196078431372547,"fill":"#000000","stroke-opacity":1,"stroke":"#000000","stroke-width":1.2}},{"type":"Feature","geometry":{"type":"Polygon","coordinates":[[[106.623295,10.707453,0],[106.622184,10.704757,0],[106.627506,10.702353,0],[106.628844,10.705027,0],[106.623295,10.707453,0]]]},"properties":{"name":"KP24","description":"Khu phố 24 - Phường Bình Đông","styleUrl":"#poly-000000-1200-77","fill-opacity":0.30196078431372547,"fill":"#000000","stroke-opacity":1,"stroke":"#000000","stroke-width":1.2}},{"type":"Feature","geometry":{"type":"Polygon","coordinates":[[[106.623295,10.707453,0],[106.619146,10.7093,0],[106.618727,10.706131,0],[106.622184,10.704757,0],[106.623295,10.707453,0]]]},"properties":{"name":"KP25","description":"Khu phố 25 - Phường Bình Đông","styleUrl":"#poly-000000-1200-77","fill-opacity":0.30196078431372547,"fill":"#000000","stroke-opacity":1,"stroke":"#000000","stroke-width":1.2}},{"type":"Feature","geometry":{"type":"Polygon","coordinates":[[[106.627506,10.702353,0],[106.622184,10.704757,0],[106.621572,10.703576,0],[106.62198,10.702543,0],[106.624168,10.701531,0],[106.624297,10.700624,0],[106.624876,10.698684,0],[106.625692,10.698832,0],[106.627506,10.702353,0]]]},"properties":{"name":"KP26","description":"Khu phố 26 - Phường Bình Đông","styleUrl":"#poly-000000-1200-77","fill-opacity":0.30196078431372547,"fill":"#000000","stroke-opacity":1,"stroke":"#000000","stroke-width":1.2}},{"type":"Feature","geometry":{"type":"Polygon","coordinates":[[[106.624504,10.699603,0],[106.624168,10.701531,0],[106.62198,10.702543,0],[106.621572,10.703576,0],[106.622184,10.704757,0],[106.618727,10.706131,0],[106.618539,10.702028,0],[106.619161,10.701269,0],[106.620728,10.700257,0],[106.621715,10.699392,0],[106.622079,10.698528,0],[106.623088,10.698718,0],[106.622916,10.699182,0],[106.624504,10.699603,0]]]},"properties":{"name":"KP27","description":"Khu phố 27 - Phường Bình Đông","styleUrl":"#poly-000000-1200-77","fill-opacity":0.30196078431372547,"fill":"#000000","stroke-opacity":1,"stroke":"#000000","stroke-width":1.2}},{"type":"Feature","geometry":{"type":"Polygon","coordinates":[[[106.617911,10.709407,0],[106.616152,10.708943,0],[106.615722,10.708479,0],[106.614993,10.707973,0],[106.613705,10.707256,0],[106.611731,10.706539,0],[106.609156,10.705949,0],[106.607354,10.704895,0],[106.610272,10.694437,0],[106.621344,10.697515,0],[106.621044,10.698822,0],[106.619928,10.69975,0],[106.618555,10.70072,0],[106.617739,10.70228,0],[106.617825,10.704853,0],[106.618211,10.706286,0],[106.61834,10.70772,0],[106.618297,10.709027,0],[106.617911,10.709407,0]]]},"properties":{"name":"KP28","description":"Khu phố 28 - Phường Bình Đông","styleUrl":"#poly-000000-1200-77","fill-opacity":0.30196078431372547,"fill":"#000000","stroke-opacity":1,"stroke":"#000000","stroke-width":1.2}},{"type":"Feature","geometry":{"type":"Polygon","coordinates":[[[106.607354,10.704895,0],[106.603098,10.703553,0],[106.605973,10.693475,0],[106.610272,10.694437,0],[106.607354,10.704895,0]]]},"properties":{"name":"KP29","description":"Khu phố 29 - Phường Bình Đông","styleUrl":"#poly-000000-1200-77","fill-opacity":0.30196078431372547,"fill":"#000000","stroke-opacity":1,"stroke":"#000000","stroke-width":1.2}},{"type":"Feature","geometry":{"type":"Polygon","coordinates":[[[106.603098,10.703553,0],[106.597405,10.70136,0],[106.597019,10.697059,0],[106.59586,10.693348,0],[106.595045,10.69048,0],[106.605973,10.693475,0],[106.603098,10.703553,0]]]},"properties":{"name":"KP30","description":"Khu phố 30 - Phường Bình Đông","styleUrl":"#poly-000000-1200-77","fill-opacity":0.30196078431372547,"fill":"#000000","stroke-opacity":1,"stroke":"#000000","stroke-width":1.2}}]}